API VERSION: 1.2
API SOURCE: NASA/JPL Horizons API

*******************************************************************************
 Revised: April 12, 2021               Jupiter                              599
 
 PHYSICAL DATA (revised 2025-Jan-30):
  Mass x 10^26 (kg)     = 18.9819           Density (g/cm^3)  = 1.3262 +- .0003
  Equat. radius (1 bar) = 71492+-4 km       Polar radius (km)     = 66854+-10
  Vol. Mean Radius (km) = 69911+-6          Flattening            = 0.06487
  Geometric Albedo      = 0.52              Rocky core mass (Mc/M)= 0.0261
  Sid. rot. period (III)= 9h 55m 29.711 s   Sid. rot. rate (rad/s)= 0.00017585
  Mean solar day, hrs   = ~9.9259         
  GM (km^3/s^2)         = 126686531.900     GM 1-sigma (km^3/s^2) =  +- 1.2732
  Equ. grav, ge (m/s^2) = 24.79             Pol. grav, gp (m/s^2) =  28.34
  Vis. magnitude V(1,0) = -9.40
  Vis. mag. (opposition)= -2.70             Obliquity to orbit    =  3.13 deg
  Sidereal orbit period = 11.861982204 y    Sidereal orbit period = 4332.589 d
  Mean daily motion     = 0.0831294 deg/d   Mean orbit speed, km/s= 13.0697
  Atmos. temp. (1 bar)  = 165+-5 K          Escape speed, km/s    =  59.5           
  A_roche(ice)/Rp       =  2.76             Hill's sphere rad. Rp = 740
                                 Perihelion   Aphelion     Mean
  Solar Constant (W/m^2)         56           46           51
  Maximum Planetary IR (W/m^2)   13.7         13.4         13.6
  Minimum Planetary IR (W/m^2)   13.7         13.4         13.6
*******************************************************************************


*******************************************************************************
Ephemeris / API_USER Thu Feb 19 13:06:17 2026 Pasadena, USA      / Horizons
*******************************************************************************
Target body name: Jupiter (599)                   {source: jup365_merged}
Center body name: Sun (10)                        {source: jup365_merged}
Center-site name: BODY CENTER
*******************************************************************************
Start time      : A.D. 2034-Jun-30 08:24:00.0000 TDB
Stop  time      : A.D. 2034-Jul-03 08:24:00.0000 TDB
Step-size       : 60 minutes
*******************************************************************************
Center geodetic : 0.0, 0.0, 0.0                   {E-lon(deg),Lat(deg),Alt(km)}
Center cylindric: 0.0, 0.0, 0.0                   {E-lon(deg),Dxy(km),Dz(km)}
Center radii    : 695700.0, 695700.0, 695700.0 km {Equator_a, b, pole_c}
Output units    : AU-D
Calendar mode   : Mixed Julian/Gregorian
Output type     : GEOMETRIC cartesian states
Output format   : 3 (position, velocity, LT, range, range-rate)
Reference frame : Ecliptic of J2000.0
*******************************************************************************
JDTDB
   X     Y     Z
   VX    VY    VZ
   LT    RG    RR
*******************************************************************************
$$SOE
2464145.766666667 = A.D. 2034-Jul-02 06:24:00.0000 TDB 
 X = 4.958474613607684E+00 Y = 3.291292525336676E-03 Z =-1.109443547547399E-01
 VX=-9.598096183048940E-05 VY= 7.905461665522825E-03 VZ=-3.073092682210269E-05
 LT= 2.864493485465953E-02 RG= 4.959716723387568E+00 RR=-9.002339806713905E-05
2464145.808333333 = A.D. 2034-Jul-02 07:24:00.0000 TDB 
 X = 4.958470603287713E+00 Y = 3.620685494259940E-03 Z =-1.109456350327774E-01
 VX=-9.651314492477452E-05 VY= 7.905399761310605E-03 VZ=-3.072244131092767E-05
 LT= 2.864491318981409E-02 RG= 4.959712972235862E+00 RR=-9.003063432034529E-05
2464145.850000000 = A.D. 2034-Jul-02 08:24:00.0000 TDB 
 X = 4.958466570956827E+00 Y = 3.950075756092871E-03 Z =-1.109469149596737E-01
 VX=-9.703732538369614E-05 VY= 7.905331908394599E-03 VZ=-3.071406306678388E-05
 LT= 2.864489152416905E-02 RG= 4.959709220945711E+00 RR=-9.002988354761291E-05
2464145.891666667 = A.D. 2034-Jul-02 09:24:00.0000 TDB 
 X = 4.958462516967380E+00 Y = 4.279463086805525E-03 Z =-1.109481945387583E-01
 VX=-9.755262341883517E-05 VY= 7.905259272288398E-03 VZ=-3.070573698896122E-05
 LT= 2.864486985975542E-02 RG= 4.959705469868770E+00 RR=-9.002026794499336E-05
2464145.933333333 = A.D. 2034-Jul-02 10:24:00.0000 TDB 
 X = 4.958458441704777E+00 Y = 4.608847313450088E-03 Z =-1.109494737710243E-01
 VX=-9.805833493889779E-05 VY= 7.905183135198798E-03 VZ=-3.069740620210950E-05
 LT= 2.864484819879470E-02 RG= 4.959701719389685E+00 RR=-9.000108490253521E-05
2464145.975000000 = A.D. 2034-Jul-02 11:24:00.0000 TDB 
 X = 4.958454345579858E+00 Y = 4.938228318485853E-03 Z =-1.109507526550775E-01
 VX=-9.855394516215514E-05 VY= 7.905104870025733E-03 VZ=-3.068901319840433E-05
 LT= 2.864482654365499E-02 RG= 4.959697969918474E+00 RR=-8.997182056799645E-05
2464146.016666667 = A.D. 2034-Jul-02 12:24:00.0000 TDB 
 X = 4.958450229020786E+00 Y = 5.267606042997898E-03 Z =-1.109520311871341E-01
 VX=-9.903913862076699E-05 VY= 7.905025913343215E-03 VZ=-3.068050096420295E-05
 LT= 2.864480489680429E-02 RG= 4.959694221882461E+00 RR=-8.993215981687494E-05
2464146.058333333 = A.D. 2034-Jul-02 13:24:00.0000 TDB 
 X = 4.958446092464603E+00 Y = 5.596980488775924E-03 Z =-1.109533093610642E-01
 VX=-9.951380563364134E-05 VY= 7.904947737755682E-03 VZ=-3.067181407748522E-05
 LT= 2.864478326076185E-02 RG= 4.959690475717840E+00 RR=-8.988199270577944E-05
2464146.100000000 = A.D. 2034-Jul-02 14:24:00.0000 TDB 
 X = 4.958441936348571E+00 Y = 5.926351719233313E-03 Z =-1.109545871684802E-01
 VX=-9.997804534094405E-05 VY= 7.904871823915605E-03 VZ=-3.066289976699334E-05
 LT= 2.864476163804836E-02 RG= 4.959686731861055E+00 RR=-8.982141750241489E-05
2464146.141666667 = A.D. 2034-Jul-02 15:24:00.0000 TDB 
 X = 4.958437761101470E+00 Y = 6.255719859156806E-03 Z =-1.109558645988686E-01
 VX=-1.004321653751170E-04 VY= 7.904799632397739E-03 VZ=-3.065370892739717E-05
 LT= 2.864474003113578E-02 RG= 4.959682990740113E+00 RR=-8.975074036707625E-05
2464146.183333333 = A.D. 2034-Jul-02 16:24:00.0000 TDB 
 X = 4.958433567134981E+00 Y = 6.585085093283641E-03 Z =-1.109571416397632E-01
 VX=-1.008766781954586E-04 VY= 7.904732575575845E-03 VZ=-3.064419708643666E-05
 LT= 2.864471844239776E-02 RG= 4.959679252765998E+00 RR=-8.967047171266819E-05
2464146.225000000 = A.D. 2034-Jul-02 17:24:00.0000 TDB 
 X = 4.958429354835277E+00 Y = 6.914447663709841E-03 Z =-1.109584182769572E-01
 VX=-1.013122940456781E-04 VY= 7.904671989657769E-03 VZ=-3.063432531887125E-05
 LT= 2.864469687406115E-02 RG= 4.959675518324279E+00 RR=-8.958131920256374E-05
2464146.266666667 = A.D. 2034-Jul-02 18:24:00.0000 TDB 
 X = 4.958425124554995E+00 Y = 7.243807866140360E-03 Z =-1.109596944947524E-01
 VX=-1.017399104207579E-04 VY= 7.904619107120271E-03 VZ=-3.062406109805157E-05
 LT= 2.864467532815983E-02 RG= 4.959671787767109E+00 RR=-8.948417727243180E-05
2464146.308333333 = A.D. 2034-Jul-02 19:24:00.0000 TDB 
 X = 4.958420876605715E+00 Y = 7.573166045005548E-03 Z =-1.109609702762422E-01
 VX=-1.021605978699865E-04 VY= 7.904575029949177E-03 VZ=-3.061337906884578E-05
 LT= 2.864465380649132E-02 RG= 4.959668061405720E+00 RR=-8.938011300246081E-05
2464146.350000000 = A.D. 2034-Jul-02 20:24:00.0000 TDB 
 X = 4.958416611251114E+00 Y = 7.902522587490505E-03 Z =-1.109622456036248E-01
 VX=-1.025755819404855E-04 VY= 7.904540704322349E-03 VZ=-3.060226171624198E-05
 LT= 2.864463231057736E-02 RG= 4.959664339503595E+00 RR=-8.927034814346686E-05
2464146.391666667 = A.D. 2034-Jul-02 21:24:00.0000 TDB 
 X = 4.958412328700949E+00 Y = 8.231877916554243E-03 Z =-1.109635204585413E-01
 VX=-1.029862211069533E-04 VY= 7.904516897638282E-03 VZ=-3.059069989408839E-05
 LT= 2.864461084162922E-02 RG= 4.959660622270455E+00 RR=-8.915623714115681E-05
2464146.433333333 = A.D. 2034-Jul-02 22:24:00.0000 TDB 
 X = 4.958408029106052E+00 Y = 8.561232483060332E-03 Z =-1.109647948224326E-01
 VX=-1.033939806684527E-04 VY= 7.904504179025926E-03 VZ=-3.057869317062412E-05
 LT= 2.864458940051883E-02 RG= 4.959656909857271E+00 RR=-8.903924113710936E-05
2464146.475000000 = A.D. 2034-Jul-02 23:24:00.0000 TDB 
 X = 4.958403712554489E+00 Y = 8.890586757189435E-03 Z =-1.109660686769057E-01
 VX=-1.038004028530830E-04 VY= 7.904502904566370E-03 VZ=-3.056624994686968E-05
 LT= 2.864456798775661E-02 RG= 4.959653202352422E+00 RR=-8.892089818415044E-05
2464146.516666667 = A.D. 2034-Jul-03 00:24:00.0000 TDB 
 X = 4.958399379069031E+00 Y = 9.219941219352976E-03 Z =-1.109673420040993E-01
 VX=-1.042070737873057E-04 VY= 7.904513208256515E-03 VZ=-3.055338731670578E-05
 LT= 2.864454660347688E-02 RG= 4.959649499779163E+00 RR=-8.880279032897535E-05
2464146.558333333 = A.D. 2034-Jul-03 01:24:00.0000 TDB 
 X = 4.958395028606052E+00 Y = 9.549296350857059E-03 Z =-1.109686147870394E-01
 VX=-1.046155885872307E-04 VY= 7.904534999027536E-03 VZ=-3.054013067323602E-05
 LT= 2.864452524743141E-02 RG= 4.959645802094517E+00 RR=-8.868650881524756E-05
2464146.600000000 = A.D. 2034-Jul-03 02:24:00.0000 TDB 
 X = 4.958390661055883E+00 Y = 9.878652624551416E-03 Z =-1.109698870099730E-01
 VX=-1.050275166381843E-04 VY= 7.904567962597742E-03 VZ=-3.052651313695868E-05
 LT= 2.864450391899150E-02 RG= 4.959642109189621E+00 RR=-8.857361947053165E-05
2464146.641666667 = A.D. 2034-Jul-03 03:24:00.0000 TDB 
 X = 4.958386276244551E+00 Y = 1.020801049559374E-02 Z =-1.109711586586782E-01
 VX=-1.054443701623551E-04 VY= 7.904611564196614E-03 VZ=-3.051257500347263E-05
 LT= 2.864448261715780E-02 RG= 4.959638420891450E+00 RR=-8.846563137735823E-05
2464146.683333333 = A.D. 2034-Jul-03 04:24:00.0000 TDB 
 X = 4.958381873936703E+00 Y = 1.053737039220939E-02 Z =-1.109724297207577E-01
 VX=-1.058675804368717E-04 VY= 7.904665043740402E-03 VZ=-3.049836360259636E-05
 LT= 2.864446134057717E-02 RG= 4.959634736965713E+00 RR=-8.836397319858118E-05
